{"type": "FeatureCollection", "features": [ {"type": "Feature", "properties": {"norad_id": 29795, "name": "FENGYUN 1C DEB", "group": "fengyun-1c-debris", "lat": -34.908703872712266, "lon": -64.66830717529942, "alt_km": 866.9945759804277, "timestamp": "2025-12-18T10:51:26.077858+00:00", "meta": {"OBJECT_NAME": "FENGYUN 1C DEB", "OBJECT_ID": "1999-025CM", "EPOCH": "2025-12-17T20:45:46.194336", "MEAN_MOTION": 13.9291175, "ECCENTRICITY": 0.01110416, "INCLINATION": 98.8708, "RA_OF_ASC_NODE": 121.0255, "ARG_OF_PERICENTER": 262.0357, "MEAN_ANOMALY": 250.924, "EPHEMERIS_TYPE": 0, "CLASSIFICATION_TYPE": "U", "NORAD_CAT_ID": 29795, "ELEMENT_SET_NO": 999, "REV_AT_EPOCH": 96136, "BSTAR": 9.7053721e-05, "MEAN_MOTION_DOT": 9e-07, "MEAN_MOTION_DDOT": 0}, "tle": {"line1": "1 29795U 99025CM  25351.86511799  .00000090  00000+0  97054-4 0  9996", "line2": "2 29795  98.8708 121.0255 0111041 262.0357 250.9240 13.92911750961368"}}, "geometry": {"type": "Point", "coordinates": [-64.66830717529942, -34.908703872712266]}}, {"type": "Feature", "properties": {"norad_id": 29796, "name": "FENGYUN 1C DEB", "group": "fengyun-1c-debris", "lat": -57.74246960185559, "lon": -150.05351635869187, "alt_km": 821.6554962207902, "timestamp": "2025-12-18T10:51:26.077868+00:00", "meta": {"OBJECT_NAME": "FENGYUN 1C DEB", "OBJECT_ID": "1999-025CN", "EPOCH": "2025-12-17T15:45:25.502688", "MEAN_MOTION": 14.12347712, "ECCENTRICITY": 0.0052083, "INCLINATION": 98.8644, "RA_OF_ASC_NODE": 43.4752, "ARG_OF_PERICENTER": 253.7924, "MEAN_ANOMALY": 260.9723, "EPHEMERIS_TYPE": 0, "CLASSIFICATION_TYPE": "U", "NORAD_CAT_ID": 29796, "ELEMENT_SET_NO": 999, "REV_AT_EPOCH": 97130, "BSTAR": 0.00055703559, "MEAN_MOTION_DOT": 9.95e-06, "MEAN_MOTION_DDOT": 0}, "tle": {"line1": "1 29796U 99025CN  25351.65654517  .00000995  00000+0  55704-3 0  9999", "line2": "2 29796  98.8644  43.4752 0052083 253.7924 260.9723 14.12347712971300"}}, "geometry": {"type": "Point", "coordinates": [-150.05351635869187, -57.74246960185559]}}, {"type": "Feature", "properties": {"norad_id": 29798, "name": "FENGYUN 1C DEB", "group": "fengyun-1c-debris", "lat": -20.301966643948983, "lon": 59.91919951603682, "alt_km": 889.0067487384931, "timestamp": "2025-12-18T10:51:26.077879+00:00", "meta": {"OBJECT_NAME": "FENGYUN 1C DEB", "OBJECT_ID": "1999-025CQ", "EPOCH": "2025-12-17T22:04:12.322848", "MEAN_MOTION": 13.99592612, "ECCENTRICITY": 0.01118206, "INCLINATION": 99.2955, "RA_OF_ASC_NODE": 55.9047, "ARG_OF_PERICENTER": 258.3297, "MEAN_ANOMALY": 276.8638, "EPHEMERIS_TYPE": 0, "CLASSIFICATION_TYPE": "U", "NORAD_CAT_ID": 29798, "ELEMENT_SET_NO": 999, "REV_AT_EPOCH": 95997, "BSTAR": 0.0012603362, "MEAN_MOTION_DOT": 1.896e-05, "MEAN_MOTION_DDOT": 0}, "tle": {"line1": "1 29798U 99025CQ  25351.91958707  .00001896  00000+0  12603-2 0  9999", "line2": "2 29798  99.2955  55.9047 0111820 258.3297 276.8638 13.99592612959971"}}, "geometry": {"type": "Point", "coordinates": [59.91919951603682, -20.301966643948983]}}, {"type": "Feature", "properties": {"norad_id": 29800, "name": "FENGYUN 1C DEB", "group": "fengyun-1c-debris", "lat": 55.665161545699355, "lon": -154.1557629441614, "alt_km": 888.0947587744431, "timestamp": "2025-12-18T10:51:26.077889+00:00", "meta": {"OBJECT_NAME": "FENGYUN 1C DEB", "OBJECT_ID": "1999-025CS", "EPOCH": "2025-12-14T12:34:15.669408", "MEAN_MOTION": 13.98577675, "ECCENTRICITY": 0.01335294, "INCLINATION": 98.2903, "RA_OF_ASC_NODE": 9.9649, "ARG_OF_PERICENTER": 222.1267, "MEAN_ANOMALY": 293.6575, "EPHEMERIS_TYPE": 0, "CLASSIFICATION_TYPE": "U", "NORAD_CAT_ID": 29800, "ELEMENT_SET_NO": 999, "REV_AT_EPOCH": 95601, "BSTAR": 0.0021913253, "MEAN_MOTION_DOT": 3.354e-05, "MEAN_MOTION_DDOT": 0}, "tle": {"line1": "1 29800U 99025CS  25348.52379247  .00003354  00000+0  21913-2 0  9997", "line2": "2 29800  98.2903   9.9649 0133529 222.1267 293.6575 13.98577675956010"}}, "geometry": {"type": "Point", "coordinates": [-154.1557629441614, 55.665161545699355]}}, {"type": "Feature", "properties": {"norad_id": 29801, "name": "FENGYUN 1C DEB", "group": "fengyun-1c-debris", "lat": 79.49116275524668, "lon": 130.16752454970663, "alt_km": 830.9558517801506, "timestamp": "2025-12-18T10:51:26.077900+00:00", "meta": {"OBJECT_NAME": "FENGYUN 1C DEB", "OBJECT_ID": "1999-025CT", "EPOCH": "2025-12-17T17:59:49.856640", "MEAN_MOTION": 14.35902722, "ECCENTRICITY": 0.01028064, "INCLINATION": 98.7951, "RA_OF_ASC_NODE": 252.8748, "ARG_OF_PERICENTER": 252.4446, "MEAN_ANOMALY": 174.4791, "EPHEMERIS_TYPE": 0, "CLASSIFICATION_TYPE": "U", "NORAD_CAT_ID": 29801, "ELEMENT_SET_NO": 999, "REV_AT_EPOCH": 99013, "BSTAR": 0.00014064959, "MEAN_MOTION_DOT": 3.84e-06, "MEAN_MOTION_DDOT": 0}, "tle": {"line1": "1 29801U 99025CT  25351.74988260  .00000384  00000+0  14065-3 0  9998", "line2": "2 29801  98.7951 252.8748 0102806 252.4446 174.4791 14.35902722990131"}}, "geometry": {"type": "Point", "coordinates": [130.16752454970663, 79.49116275524668]}}, {"type": "Feature", "properties": {"norad_id": 29802, "name": "FENGYUN 1C DEB", "group": "fengyun-1c-debris", "lat": -78.5011141688513, "lon": -126.39720685716397, "alt_km": 678.7793711315426, "timestamp": "2025-12-18T10:51:26.077910+00:00", "meta": {"OBJECT_NAME": "FENGYUN 1C DEB", "OBJECT_ID": "1999-025CU", "EPOCH": "2025-12-17T06:02:31.509312", "MEAN_MOTION": 14.62436139, "ECCENTRICITY": 0.00371281, "INCLINATION": 98.6193, "RA_OF_ASC_NODE": 100.5618, "ARG_OF_PERICENTER": 324.5553, "MEAN_ANOMALY": 100.7642, "EPHEMERIS_TYPE": 0, "CLASSIFICATION_TYPE": "U", "NORAD_CAT_ID": 29802, "ELEMENT_SET_NO": 999, "REV_AT_EPOCH": 98539, "BSTAR": 0.0021166951, "MEAN_MOTION_DOT": 0.00010783, "MEAN_MOTION_DDOT": 0}, "tle": {"line1": "1 29802U 99025CU  25351.25175358  .00010783  00000+0  21167-2 0  9995", "line2": "2 29802  98.6193 100.5618 0037128 324.5553 100.7642 14.62436139985391"}}, "geometry": {"type": "Point", "coordinates": [-126.39720685716397, -78.5011141688513]}}, {"type": "Feature", "properties": {"norad_id": 29804, "name": "FENGYUN 1C DEB", "group": "fengyun-1c-debris", "lat": 58.787121291077185, "lon": -164.69183207327572, "alt_km": 941.3393610701123, "timestamp": "2025-12-18T10:51:26.077921+00:00", "meta": {"OBJECT_NAME": "FENGYUN 1C DEB", "OBJECT_ID": "1999-025CW", "EPOCH": "2025-12-17T14:21:24.674400", "MEAN_MOTION": 14.0432401, "ECCENTRICITY": 0.00969993, "INCLINATION": 98.8048, "RA_OF_ASC_NODE": 359.6596, "ARG_OF_PERICENTER": 288.1719, "MEAN_ANOMALY": 196.1277, "EPHEMERIS_TYPE": 0, "CLASSIFICATION_TYPE": "U", "NORAD_CAT_ID": 29804, "ELEMENT_SET_NO": 999, "REV_AT_EPOCH": 96962, "BSTAR": 1.2403122e-05, "MEAN_MOTION_DOT": -2.3e-07, "MEAN_MOTION_DDOT": 0}, "tle": {"line1": "1 29804U 99025CW  25351.59820225 -.00000023  00000+0  12403-4 0  9996", "line2": "2 29804  98.8048 359.6596 0096999 288.1719 196.1277 14.04324010969627"}}, "geometry": {"type": "Point", "coordinates": [-164.69183207327572, 58.787121291077185]}}, {"type": "Feature", "properties": {"norad_id": 29805, "name": "FENGYUN 1C DEB", "group": "fengyun-1c-debris", "lat": -6.9614390939294655, "lon": 44.81665796682466, "alt_km": 1095.8841926382956, "timestamp": "2025-12-18T10:51:26.077946+00:00", "meta": {"OBJECT_NAME": "FENGYUN 1C DEB", "OBJECT_ID": "1999-025CX", "EPOCH": "2025-12-17T03:24:13.325760", "MEAN_MOTION": 13.72658708, "ECCENTRICITY": 0.01881534, "INCLINATION": 99.4545, "RA_OF_ASC_NODE": 42.3573, "ARG_OF_PERICENTER": 218.287, "MEAN_ANOMALY": 140.4794, "EPHEMERIS_TYPE": 0, "CLASSIFICATION_TYPE": "U", "NORAD_CAT_ID": 29805, "ELEMENT_SET_NO": 999, "REV_AT_EPOCH": 94763, "BSTAR": 0.0001634971, "MEAN_MOTION_DOT": 1.25e-06, "MEAN_MOTION_DDOT": 0}, "tle": {"line1": "1 29805U 99025CX  25351.14182090  .00000125  00000+0  16350-3 0  9995", "line2": "2 29805  99.4545  42.3573 0188153 218.2870 140.4794 13.72658708947635"}}, "geometry": {"type": "Point", "coordinates": [44.81665796682466, -6.9614390939294655]}}, {"type": "Feature", "properties": {"norad_id": 29806, "name": "FENGYUN 1C DEB", "group": "fengyun-1c-debris", "lat": -71.36386825099117, "lon": 35.124322308450665, "alt_km": 847.1689326434534, "timestamp": "2025-12-18T10:51:26.077959+00:00", "meta": {"OBJECT_NAME": "FENGYUN 1C DEB", "OBJECT_ID": "1999-025CY", "EPOCH": "2025-12-17T19:02:22.791840", "MEAN_MOTION": 14.12016428, "ECCENTRICITY": 0.00277313, "INCLINATION": 98.7123, "RA_OF_ASC_NODE": 7.4393, "ARG_OF_PERICENTER": 237.1421, "MEAN_ANOMALY": 300.8524, "EPHEMERIS_TYPE": 0, "CLASSIFICATION_TYPE": "U", "NORAD_CAT_ID": 29806, "ELEMENT_SET_NO": 999, "REV_AT_EPOCH": 97210, "BSTAR": 0.00047948589, "MEAN_MOTION_DOT": 8.38e-06, "MEAN_MOTION_DDOT": 0}, "tle": {"line1": "1 29806U 99025CY  25351.79331935  .00000838  00000+0  47949-3 0  9990", "line2": "2 29806  98.7123   7.4393 0027731 237.1421 300.8524 14.12016428972103"}}, "geometry": {"type": "Point", "coordinates": [35.124322308450665, -71.36386825099117]}}, {"type": "Feature", "properties": {"norad_id": 29807, "name": "FENGYUN 1C DEB", "group": "fengyun-1c-debris", "lat": -76.32643641058236, "lon": 36.20872399349915, "alt_km": 824.1158025033174, "timestamp": "2025-12-18T10:51:26.077969+00:00", "meta": {"OBJECT_NAME": "FENGYUN 1C DEB", "OBJECT_ID": "1999-025CZ", "EPOCH": "2025-12-17T18:10:53.992704", "MEAN_MOTION": 14.08662484, "ECCENTRICITY": 0.00793374, "INCLINATION": 98.7547, "RA_OF_ASC_NODE": 356.233, "ARG_OF_PERICENTER": 317.6738, "MEAN_ANOMALY": 41.8328, "EPHEMERIS_TYPE": 0, "CLASSIFICATION_TYPE": "U", "NORAD_CAT_ID": 29807, "ELEMENT_SET_NO": 999, "REV_AT_EPOCH": 97165, "BSTAR": 0.00019698002, "MEAN_MOTION_DOT": 3.06e-06, "MEAN_MOTION_DDOT": 0}, "tle": {"line1": "1 29807U 99025CZ  25351.75756936  .00000306  00000+0  19698-3 0  9999", "line2": "2 29807  98.7547 356.2330 0079337 317.6738  41.8328 14.08662484971651"}}, "geometry": {"type": "Point", "coordinates": [36.20872399349915, -76.32643641058236]}}]}